[{"OBJECT_NAME":"SHIYAN-21 (SY-21)","OBJECT_ID":"2022-172A","EPOCH":"2026-03-09T23:40:42.191616","MEAN_MOTION":15.28197132,"ECCENTRICITY":0.00206059,"INCLINATION":35.9768,"RA_OF_ASC_NODE":332.6944,"ARG_OF_PERICENTER":79.3933,"MEAN_ANOMALY":280.9121,"EPHEMERIS_TYPE":0,"CLASSIFICATION_TYPE":"U","NORAD_CAT_ID":54752,"ELEMENT_SET_NO":999,"REV_AT_EPOCH":18050,"BSTAR":0.00041186164,"MEAN_MOTION_DOT":0.00011616,"MEAN_MOTION_DDOT":0},{"OBJECT_NAME":"STARLINK-31363","OBJECT_ID":"2024-093A","EPOCH":"2026-03-09T16:49:05.556864","MEAN_MOTION":15.2756469,"ECCENTRICITY":0.00011059,"INCLINATION":43.0027,"RA_OF_ASC_NODE":205.6275,"ARG_OF_PERICENTER":210.0856,"MEAN_ANOMALY":149.9932,"EPHEMERIS_TYPE":0,"CLASSIFICATION_TYPE":"U","NORAD_CAT_ID":59782,"ELEMENT_SET_NO":999,"REV_AT_EPOCH":10273,"BSTAR":-6.8521965e-5,"MEAN_MOTION_DOT":-2.146e-5,"MEAN_MOTION_DDOT":0}]
